start=new Date('2023-05-05T00:00:00.000Z').valueOf();
sats=[{"CLASSIFICATION_TYPE":"U","SITE":"AFETR","FILE":"3901186","RCS_SIZE":"LARGE","PERIOD":"95.592","OBJECT_NAME":"STARLINK-2169","EPHEMERIS_TYPE":"0","ELEMENT_SET_NO":"999","DECAY_DATE":null,"MEAN_ANOMALY":"258.5965","MEAN_MOTION_DOT":"0.00005439","SEMIMAJOR_AXIS":"6925.345","REF_FRAME":"TEME","BSTAR":"0.00038370000000","MEAN_MOTION":"15.06401006","NORAD_CAT_ID":"47752","OBJECT_ID":"2021-017AG","CENTER_NAME":"EARTH","LAUNCH_DATE":"2021-03-04","COUNTRY_CODE":"US","RA_OF_ASC_NODE":"195.7735","OBJECT_TYPE":"PAYLOAD","MEAN_MOTION_DDOT":"0.0000000000000","EPOCH":"2023-05-04T14:20:14.063136","PERIAPSIS":"546.409","REV_AT_EPOCH":"12108","TIME_SYSTEM":"UTC","GP_ID":"231271927","ECCENTRICITY":"0.00011580","TLE_LINE1":"1 47752U 21017AG  23124.59738499  .00005439  00000-0  38370-3 0  9997","INCLINATION":"53.0533","TLE_LINE2":"2 47752  53.0533 195.7735 0001158 101.5154 258.5965 15.06401006121080","APOAPSIS":"548.012","MEAN_ELEMENT_THEORY":"SGP4","ARG_OF_PERICENTER":"101.5154"},{"OBJECT_ID":"2021-017AH","CENTER_NAME":"EARTH","LAUNCH_DATE":"2021-03-04","COUNTRY_CODE":"US","RA_OF_ASC_NODE":"199.3923","OBJECT_TYPE":"PAYLOAD","MEAN_MOTION_DDOT":"0.0000000000000","EPOCH":"2023-05-04T21:42:46.668384","PERIAPSIS":"546.547","REV_AT_EPOCH":"12105","TIME_SYSTEM":"UTC","GP_ID":"231270173","TLE_LINE1":"1 47753U 21017AH  23124.90470681  .00015881  00000-0  10822-2 0  9992","ECCENTRICITY":"0.00008960","INCLINATION":"53.0538","TLE_LINE2":"2 47753  53.0538 199.3923 0000896  96.5545 263.5546 15.06415025121054","APOAPSIS":"547.788","MEAN_ELEMENT_THEORY":"SGP4","ARG_OF_PERICENTER":"96.5545","CLASSIFICATION_TYPE":"U","SITE":"AFETR","FILE":"3901186","RCS_SIZE":"LARGE","PERIOD":"95.591","OBJECT_NAME":"STARLINK-2170","EPHEMERIS_TYPE":"0","ELEMENT_SET_NO":"999","DECAY_DATE":null,"MEAN_ANOMALY":"263.5546","MEAN_MOTION_DOT":"0.00015881","SEMIMAJOR_AXIS":"6925.303","REF_FRAME":"TEME","BSTAR":"0.00108220000000","MEAN_MOTION":"15.06415025","NORAD_CAT_ID":"47753"},{"BSTAR":"0.00012106000000","REF_FRAME":"TEME","NORAD_CAT_ID":"47754","MEAN_MOTION":"15.06398500","MEAN_MOTION_DOT":"0.00001522","SEMIMAJOR_AXIS":"6925.353","MEAN_ANOMALY":"261.9027","DECAY_DATE":null,"OBJECT_NAME":"STARLINK-2171","PERIOD":"95.592","ELEMENT_SET_NO":"999","EPHEMERIS_TYPE":"0","FILE":"3901186","RCS_SIZE":"LARGE","SITE":"AFETR","CLASSIFICATION_TYPE":"U","ARG_OF_PERICENTER":"98.2086","MEAN_ELEMENT_THEORY":"SGP4","APOAPSIS":"547.972","TLE_LINE2":"2 47754  53.0541 201.0178 0001088  98.2086 261.9027 15.06398500120968","REV_AT_EPOCH":"12096","TIME_SYSTEM":"UTC","PERIAPSIS":"546.465","EPOCH":"2023-05-04T13:02:36.368736","ECCENTRICITY":"0.00010880","TLE_LINE1":"1 47754U 21017AJ  23124.54347649  .00001522  00000-0  12106-3 0  9995","INCLINATION":"53.0541","GP_ID":"231270925","OBJECT_TYPE":"PAYLOAD","RA_OF_ASC_NODE":"201.0178","MEAN_MOTION_DDOT":"0.0000000000000","COUNTRY_CODE":"US","CENTER_NAME":"EARTH","OBJECT_ID":"2021-017AJ","LAUNCH_DATE":"2021-03-04"},{"OBJECT_TYPE":"PAYLOAD","RA_OF_ASC_NODE":"201.3273","MEAN_MOTION_DDOT":"0.0000000000000","TIME_SYSTEM":"UTC","REV_AT_EPOCH":"12099","PERIAPSIS":"546.206","EPOCH":"2023-05-04T11:21:46.536192","TLE_LINE1":"1 47756U 21017AL  23124.47345528  .00014112  00000-0  96517-3 0  9990","INCLINATION":"53.0528","ECCENTRICITY":"0.00015890","GP_ID":"231237372","CENTER_NAME":"EARTH","OBJECT_ID":"2021-017AL","LAUNCH_DATE":"2021-03-04","COUNTRY_CODE":"US","MEAN_ELEMENT_THEORY":"SGP4","ARG_OF_PERICENTER":"76.9335","TLE_LINE2":"2 47756  53.0528 201.3273 0001589  76.9335 283.1831 15.06369667120994","APOAPSIS":"548.407","FILE":"3900892","RCS_SIZE":"LARGE","OBJECT_NAME":"STARLINK-2174","PERIOD":"95.594","ELEMENT_SET_NO":"999","EPHEMERIS_TYPE":"0","CLASSIFICATION_TYPE":"U","SITE":"AFETR","BSTAR":"0.00096517000000","REF_FRAME":"TEME","NORAD_CAT_ID":"47756","MEAN_MOTION":"15.06369667","MEAN_ANOMALY":"283.1831","DECAY_DATE":null,"MEAN_MOTION_DOT":"0.00014112","SEMIMAJOR_AXIS":"6925.442"},{"FILE":"3901186","RCS_SIZE":"LARGE","OBJECT_NAME":"STARLINK-2175","PERIOD":"95.592","ELEMENT_SET_NO":"999","EPHEMERIS_TYPE":"0","SITE":"AFETR","CLASSIFICATION_TYPE":"U","BSTAR":"0.00134570000000","REF_FRAME":"TEME","NORAD_CAT_ID":"47757","MEAN_MOTION":"15.06396759","MEAN_ANOMALY":"254.7112","DECAY_DATE":null,"MEAN_MOTION_DOT":"0.00019818","SEMIMAJOR_AXIS":"6925.358","OBJECT_TYPE":"PAYLOAD","RA_OF_ASC_NODE":"200.8021","MEAN_MOTION_DDOT":"0.0000000000000","REV_AT_EPOCH":"12095","TIME_SYSTEM":"UTC","PERIAPSIS":"546.359","EPOCH":"2023-05-04T14:11:37.405824","TLE_LINE1":"1 47757U 21017AM  23124.59140516  .00019818  00000-0  13457-2 0  9993","ECCENTRICITY":"0.00012490","INCLINATION":"53.0532","GP_ID":"231271428","CENTER_NAME":"EARTH","OBJECT_ID":"2021-017AM","LAUNCH_DATE":"2021-03-04","COUNTRY_CODE":"US","MEAN_ELEMENT_THEORY":"SGP4","ARG_OF_PERICENTER":"105.4015","TLE_LINE2":"2 47757  53.0532 200.8021 0001249 105.4015 254.7112 15.06396759120955","APOAPSIS":"548.088"},{"COUNTRY_CODE":"US","LAUNCH_DATE":"2021-03-04","CENTER_NAME":"EARTH","OBJECT_ID":"2021-017AQ","TLE_LINE1":"1 47760U 21017AQ  23124.55730910  .00005262  00000-0  37182-3 0  9996","INCLINATION":"53.0535","ECCENTRICITY":"0.00011660","GP_ID":"231238373","TIME_SYSTEM":"UTC","REV_AT_EPOCH":"12084","EPOCH":"2023-05-04T13:22:31.506240","PERIAPSIS":"546.394","MEAN_MOTION_DDOT":"0.0000000000000","OBJECT_TYPE":"PAYLOAD","RA_OF_ASC_NODE":"210.9519","APOAPSIS":"548.009","TLE_LINE2":"2 47760  53.0535 210.9519 0001166  99.9509 260.1612 15.06403789120845","ARG_OF_PERICENTER":"99.9509","MEAN_ELEMENT_THEORY":"SGP4","CLASSIFICATION_TYPE":"U","SITE":"AFETR","ELEMENT_SET_NO":"999","EPHEMERIS_TYPE":"0","OBJECT_NAME":"STARLINK-2178","PERIOD":"95.592","RCS_SIZE":"LARGE","FILE":"3900892","SEMIMAJOR_AXIS":"6925.337","MEAN_MOTION_DOT":"0.00005262","MEAN_ANOMALY":"260.1612","DECAY_DATE":null,"NORAD_CAT_ID":"47760","MEAN_MOTION":"15.06403789","BSTAR":"0.00037182000000","REF_FRAME":"TEME"},{"NORAD_CAT_ID":"47761","MEAN_MOTION":"15.06409248","BSTAR":"0.00015545000000","REF_FRAME":"TEME","MEAN_ANOMALY":"271.3138","DECAY_DATE":null,"SEMIMAJOR_AXIS":"6925.320","MEAN_MOTION_DOT":"0.00002035","RCS_SIZE":"LARGE","FILE":"3901186","ELEMENT_SET_NO":"999","EPHEMERIS_TYPE":"0","OBJECT_NAME":"STARLINK-2179","PERIOD":"95.592","CLASSIFICATION_TYPE":"U","SITE":"AFETR","MEAN_ELEMENT_THEORY":"SGP4","ARG_OF_PERICENTER":"88.7985","TLE_LINE2":"2 47761  53.0536 200.8166 0001177  88.7985 271.3138 15.06409248120965","APOAPSIS":"548.000","MEAN_MOTION_DDOT":"0.0000000000000","OBJECT_TYPE":"PAYLOAD","RA_OF_ASC_NODE":"200.8166","ECCENTRICITY":"0.00011770","TLE_LINE1":"1 47761U 21017AR  23124.58771934  .00002035  00000-0  15545-3 0  9995","INCLINATION":"53.0536","GP_ID":"231270426","REV_AT_EPOCH":"12096","TIME_SYSTEM":"UTC","PERIAPSIS":"546.370","EPOCH":"2023-05-04T14:06:18.950976","LAUNCH_DATE":"2021-03-04","CENTER_NAME":"EARTH","OBJECT_ID":"2021-017AR","COUNTRY_CODE":"US"},{"CENTER_NAME":"EARTH","OBJECT_ID":"2021-017AS","LAUNCH_DATE":"2021-03-04","COUNTRY_CODE":"US","OBJECT_TYPE":"PAYLOAD","RA_OF_ASC_NODE":"215.7087","MEAN_MOTION_DDOT":"0.0000000000000","REV_AT_EPOCH":"12077","TIME_SYSTEM":"UTC","PERIAPSIS":"546.245","EPOCH":"2023-05-04T14:44:08.044800","TLE_LINE1":"1 47762U 21017AS  23124.61398200  .00016921  00000-0  11522-2 0  9990","ECCENTRICITY":"0.00014080","INCLINATION":"53.0542","GP_ID":"231271677","TLE_LINE2":"2 47762  53.0542 215.7087 0001408  94.1804 265.9346 15.06397841120772","APOAPSIS":"548.195","MEAN_ELEMENT_THEORY":"SGP4","ARG_OF_PERICENTER":"94.1804","SITE":"AFETR","CLASSIFICATION_TYPE":"U","FILE":"3901186","RCS_SIZE":"LARGE","OBJECT_NAME":"STARLINK-2180","PERIOD":"95.592","ELEMENT_SET_NO":"999","EPHEMERIS_TYPE":"0","MEAN_ANOMALY":"265.9346","DECAY_DATE":null,"MEAN_MOTION_DOT":"0.00016921","SEMIMAJOR_AXIS":"6925.355","BSTAR":"0.00115220000000","REF_FRAME":"TEME","NORAD_CAT_ID":"47762","MEAN_MOTION":"15.06397841"},{"BSTAR":"0.00073800000000","REF_FRAME":"TEME","NORAD_CAT_ID":"47763","MEAN_MOTION":"15.06403866","MEAN_MOTION_DOT":"0.00010729","SEMIMAJOR_AXIS":"6925.337","MEAN_ANOMALY":"281.0722","DECAY_DATE":null,"OBJECT_NAME":"STARLINK-2181","PERIOD":"95.592","ELEMENT_SET_NO":"999","EPHEMERIS_TYPE":"0","FILE":"3901186","RCS_SIZE":"LARGE","SITE":"AFETR","CLASSIFICATION_TYPE":"U","ARG_OF_PERICENTER":"79.0429","MEAN_ELEMENT_THEORY":"SGP4","APOAPSIS":"548.197","TLE_LINE2":"2 47763  53.0542 205.6298 0001437  79.0429 281.0722 15.06403866120897","TIME_SYSTEM":"UTC","REV_AT_EPOCH":"12089","EPOCH":"2023-05-04T15:06:41.933664","PERIAPSIS":"546.207","TLE_LINE1":"1 47763U 21017AT  23124.62965201  .00010729  00000-0  73800-3 0  9991","INCLINATION":"53.0542","ECCENTRICITY":"0.00014370","GP_ID":"231271928","OBJECT_TYPE":"PAYLOAD","RA_OF_ASC_NODE":"205.6298","MEAN_MOTION_DDOT":"0.0000000000000","COUNTRY_CODE":"US","CENTER_NAME":"EARTH","OBJECT_ID":"2021-017AT","LAUNCH_DATE":"2021-03-04"},{"PERIAPSIS":"546.106","EPOCH":"2023-05-04T11:11:50.567136","REV_AT_EPOCH":"12078","TIME_SYSTEM":"UTC","GP_ID":"231237873","ECCENTRICITY":"0.00016940","TLE_LINE1":"1 47764U 21017AU  23124.46655749  .00015200  00000-0  10377-2 0  9995","INCLINATION":"53.0545","RA_OF_ASC_NODE":"216.3615","OBJECT_TYPE":"PAYLOAD","MEAN_MOTION_DDOT":"0.0000000000000","COUNTRY_CODE":"US","OBJECT_ID":"2021-017AU","CENTER_NAME":"EARTH","LAUNCH_DATE":"2021-03-04","ARG_OF_PERICENTER":"46.7573","MEAN_ELEMENT_THEORY":"SGP4","APOAPSIS":"548.452","TLE_LINE2":"2 47764  53.0545 216.3615 0001694  46.7573 313.3557 15.06378546120788","PERIOD":"95.594","OBJECT_NAME":"STARLINK-2182","EPHEMERIS_TYPE":"0","ELEMENT_SET_NO":"999","FILE":"3900892","RCS_SIZE":"LARGE","CLASSIFICATION_TYPE":"U","SITE":"AFETR","REF_FRAME":"TEME","BSTAR":"0.00103770000000","MEAN_MOTION":"15.06378546","NORAD_CAT_ID":"47764","MEAN_MOTION_DOT":"0.00015200","SEMIMAJOR_AXIS":"6925.414","DECAY_DATE":null,"MEAN_ANOMALY":"313.3557"}];
